H1 CPF 01  gfz 2021 08 15 00  7271 tandemx   
H2 1003001  6202 36605    2021 08 15 00 59 42 2021 08 20 00 00 42   120 1 1  0 0 0
H9
10 0 59445  22302.000000  0    6742936.271   -118353.333   1400434.835
10 0 59445  22422.000000  0    6863994.871   -301085.983    504754.391
10 0 59445  22542.000000  0    6861927.053   -479598.157   -399811.319
10 0 59445  22662.000000  0    6736948.419   -648620.899  -1297344.002
10 0 59445  22782.000000  0    6491532.542   -803079.602  -2172068.993
10 0 59445  22902.000000  0    6130355.070   -938222.506  -3008639.882
10 0 59445  23022.000000  0    5660194.610  -1049741.485  -3792412.095
10 0 59445  23142.000000  0    5089793.431  -1133881.781  -4509700.384
10 0 59445  23262.000000  0    4429682.488  -1187537.857  -5148014.682
10 0 59445  23382.000000  0    3691976.275  -1208334.360  -5696271.476
10 0 59445  23502.000000  0    2890141.122  -1194690.743  -6144977.244
10 0 59445  23622.000000  0    2038743.696  -1145867.168  -6486381.523
10 0 59445  23742.000000  0    1153184.659  -1061991.099  -6714599.667
10 0 59445  23862.000000  0     249421.952   -944066.249  -6825704.077
10 0 59445  23982.000000  0    -656312.273   -793962.117  -6817784.396
10 0 59445  24102.000000  0   -1547796.182   -614384.935  -6690976.575
10 0 59445  24222.000000  0   -2409102.527   -408829.897  -6447460.847
10 0 59445  24342.000000  0   -3224876.539   -181515.830  -6091427.004
10 0 59445  24462.000000  0   -3980604.247     62696.937  -5629010.932
10 0 59445  24582.000000  0   -4662870.945    318404.760  -5068199.783
10 0 59445  24702.000000  0   -5259601.902    579772.667  -4418705.341
10 0 59445  24822.000000  0   -5760283.933    840659.402  -3691808.081
10 0 59445  24942.000000  0   -6156161.439   1094753.494  -2900170.181
10 0 59445  25062.000000  0   -6440401.881   1335716.611  -2057620.816
10 0 59445  25182.000000  0   -6608226.465   1557330.812  -1178916.994
10 0 59445  25302.000000  0   -6657003.101   1753647.480   -279483.101
10 0 59445  25422.000000  0   -6586295.872   1919131.940    624866.467
10 0 59445  25542.000000  0   -6397870.150   2048801.520   1518212.538
10 0 59445  25662.000000  0   -6095654.293   2138353.878   2384820.141
10 0 59445  25782.000000  0   -5685657.133   2184281.407   3209424.777
10 0 59445  25902.000000  0   -5175843.616   2183967.950   3977509.232
10 0 59445  26022.000000  0   -4575971.752   2135765.970   4675563.867
10 0 59445  26142.000000  0   -3897396.906   2039052.903   5291325.228
10 0 59445  26262.000000  0   -3152848.838   1894265.643   5813990.045
10 0 59445  26382.000000  0   -2356185.212   1702912.793   6234402.418
10 0 59445  26502.000000  0   -1522126.121   1467563.318   6545209.089
10 0 59445  26622.000000  0    -665977.303   1191812.398   6740981.122
10 0 59445  26742.000000  0     196651.892    880226.039   6818301.774
10 0 59445  26862.000000  0    1050132.269    538264.888   6775822.200
10 0 59445  26982.000000  0    1879096.716    172188.785   6614283.346
10 0 59445  27102.000000  0    2668715.647   -211056.962   6336504.430
10 0 59445  27222.000000  0    3404962.811   -603972.397   5947338.073
10 0 59445  27342.000000  0    4074867.221   -998647.934   5453590.410
10 0 59445  27462.000000  0    4666745.900  -1386922.234   4863907.811
10 0 59445  27582.000000  0    5170413.806  -1760549.427   4188631.545
10 0 59445  27702.000000  0    5577367.978  -2111372.111   3439621.029
10 0 59445  27822.000000  0    5880940.195  -2431497.820   2630046.855
10 0 59445  27942.000000  0    6076413.572  -2713473.925   1774157.847
10 0 59445  28062.000000  0    6161101.881  -2950456.279    887027.072
10 0 59445  28182.000000  0    6134388.863  -3136368.521    -15720.728
10 0 59445  28302.000000  0    5997724.710  -3266046.652   -918192.503
10 0 59445  28422.000000  0    5754581.137  -3335365.701  -1804516.728
10 0 59445  28542.000000  0    5410364.066  -3341344.206  -2659130.388
10 0 59445  28662.000000  0    4972290.153  -3282225.451  -3467057.709
10 0 59445  28782.000000  0    4449228.470  -3157533.182  -4214175.292
10 0 59445  28902.000000  0    3851512.632  -2968101.374  -4887458.269
10 0 59445  29022.000000  0    3190727.401  -2716076.213  -5475202.574
10 0 59445  29142.000000  0    2479477.540  -2404892.068  -5967218.815
10 0 59445  29262.000000  0    1731144.846  -2039223.889  -6354998.612
10 0 59445  29382.000000  0     959635.070  -1624914.640  -6631852.458
10 0 59445  29502.000000  0     179120.301  -1168879.523  -6793013.958
10 0 59445  29622.000000  0    -596217.204   -678990.905  -6835712.482
10 0 59445  29742.000000  0   -1352436.536   -163944.831  -6759215.017
10 0 59445  29862.000000  0   -2076083.174    366889.789  -6564837.118
10 0 59445  29982.000000  0   -2754422.645    903637.046  -6255921.977
10 0 59445  30102.000000  0   -3375659.945   1436092.745  -5837789.479
10 0 59445  30222.000000  0   -3929143.576   1953913.720  -5317655.195
10 0 59445  30342.000000  0   -4405551.534   2446815.681  -4704517.777
10 0 59445  30462.000000  0   -4797053.902   2904776.473  -4009013.699
10 0 59445  30582.000000  0   -5097448.475   3318238.938  -3243242.402
10 0 59445  30702.000000  0   -5302268.200   3678311.213  -2420564.270
10 0 59445  30822.000000  0   -5408855.749   3976959.512  -1555371.358
10 0 59445  30942.000000  0   -5416403.877   4207187.661   -662835.963
10 0 59445  31062.000000  0   -5325959.175   4363199.138    241359.190
10 0 59445  31182.000000  0   -5140388.469   4440537.687   1141303.910
10 0 59445  31302.000000  0   -4864306.787   4436200.284   2021150.156
10 0 59445  31422.000000  0   -4503969.934   4348720.736   2865400.075
10 0 59445  31542.000000  0   -4067134.296   4178222.881   3659186.730
10 0 59445  31662.000000  0   -3562887.888   3926440.562   4388541.879
10 0 59445  31782.000000  0   -3001457.777   3596704.646   5040644.878
10 0 59445  31902.000000  0   -2393997.675   3193897.589   5604048.663
10 0 59445  32022.000000  0   -1752361.215   2724377.273   6068878.171
10 0 59445  32142.000000  0   -1088865.981   2195871.773   6426998.549
10 0 59445  32262.000000  0    -416054.513   1617347.378   6672149.782
10 0 59445  32382.000000  0     253542.191    998854.085   6800050.287
10 0 59445  32502.000000  0     907638.039    351349.582   6808467.028
10 0 59445  32622.000000  0    1534416.164   -313494.356   6697251.722
10 0 59445  32742.000000  0    2122741.516   -983501.556   6468344.122
10 0 59445  32862.000000  0    2662358.480  -1646213.811   6125740.584
10 0 59445  32982.000000  0    3144071.543  -2289122.144   5675429.689
10 0 59445  33102.000000  0    3559905.084  -2899904.012   5125292.849
10 0 59445  33222.000000  0    3903239.402  -3466661.539   4484972.535
10 0 59445  33342.000000  0    4168920.781  -3978156.993   3765708.166
10 0 59445  33462.000000  0    4353342.868  -4424040.430   2980141.662
10 0 59445  33582.000000  0    4454497.627  -4795064.303   2142095.497
10 0 59445  33702.000000  0    4471994.076  -5083279.143   1266326.155
10 0 59445  33822.000000  0    4407043.413  -5282205.686    368258.452
10 0 59445  33942.000000  0    4262410.892  -5386978.305   -536293.512
10 0 59445  34062.000000  0    4042337.651  -5394457.745  -1431412.962
10 0 59445  34182.000000  0    3752431.358  -5303308.564  -2301370.026
10 0 59445  34302.000000  0    3399530.300  -5114039.425  -3130904.818
10 0 59445  34422.000000  0    2991544.770  -4829005.986  -3905499.894
10 0 59445  34542.000000  0    2537279.143  -4452377.443  -4611635.128
10 0 59445  34662.000000  0    2046240.047  -3990067.367  -5237020.885
10 0 59445  34782.000000  0    1528436.499  -3449630.971  -5770804.076
10 0 59445  34902.000000  0     994176.433  -2840134.458  -6203746.211
10 0 59445  35022.000000  0     453862.587  -2171998.002  -6528372.897
10 0 59445  35142.000000  0     -82207.819  -1456814.249  -6739092.046
10 0 59445  35262.000000  0    -604034.938   -707146.749  -6832279.979
10 0 59445  35382.000000  0   -1102097.496     63687.914  -6806336.513
10 0 59445  35502.000000  0   -1567522.414    841851.115  -6661708.621
10 0 59445  35622.000000  0   -1992239.173   1613224.122  -6400883.394
10 0 59445  35742.000000  0   -2369116.586   2363657.781  -6028349.887
10 0 59445  35862.000000  0   -2692082.141   3079226.960  -5550531.235
10 0 59445  35982.000000  0   -2956220.701   3746487.025  -4975684.927
10 0 59445  36102.000000  0   -3157852.225   4352727.809  -4313772.010
10 0 59445  36222.000000  0   -3294585.526   4886219.924  -3576293.961
10 0 59445  36342.000000  0   -3365345.726   5336446.701  -2776100.455
10 0 59445  36462.000000  0   -3370376.556   5694318.605  -1927172.540
10 0 59445  36582.000000  0   -3311216.647   5952366.256  -1044380.746
10 0 59445  36702.000000  0   -3190647.701   6104903.963   -143221.991
10 0 59445  36822.000000  0   -3012618.682   6148159.355    760456.435
10 0 59445  36942.000000  0   -2782145.917   6080367.871   1650744.988
10 0 59445  37062.000000  0   -2505188.129   5901824.225   2511963.149
10 0 59445  37182.000000  0   -2188503.023   5614890.680   3328944.222
10 0 59445  37302.000000  0   -1839490.082   5223964.354   4087308.415
10 0 59445  37422.000000  0   -1466022.920   4735404.435   4773719.983
10 0 59445  37542.000000  0   -1076274.386   4157421.042   5376123.415
10 0 59445  37662.000000  0    -678539.165   3499928.319   5883953.267
10 0 59445  37782.000000  0    -281059.549   2774366.008   6288315.453
10 0 59445  37902.000000  0     108143.669   1993493.468   6582136.819
10 0 59445  38022.000000  0     481431.268   1171161.419   6760283.225
10 0 59445  38142.000000  0     831694.316    322063.277   6819643.594
10 0 59445  38262.000000  0    1152488.233   -538526.786   6759180.217
10 0 59445  38382.000000  0    1438150.670  -1395027.930   6579946.982
10 0 59445  38502.000000  0    1683901.618  -2231834.219   6285072.298
10 0 59445  38622.000000  0    1885923.890  -3033599.358   5879708.622
10 0 59445  38742.000000  0    2041422.871  -3785520.393   5370947.453
99
